{
  "type": "FeatureCollection",
  "features": [
    {
      "type": "Feature",
      "properties": {
        "norad_id": 66475,
        "name": "STARLINK-35538",
        "group": "last-30-days",
        "lat": 27.36842499062785,
        "lon": 106.27049022833229,
        "alt_km": 410.7876741631744,
        "timestamp": "2025-12-12T11:38:30.168775+00:00",
        "meta_object_name": "STARLINK-35538",
        "meta_object_id": "2025-262V",
        "meta_epoch": "2025-12-11T15:21:50.485824",
        "meta_mean_motion": 15.50624349,
        "meta_eccentricity": 0.00019147,
        "meta_inclination": 43.0001,
        "meta_ra_of_asc_node": 77.4689,
        "meta_arg_of_pericenter": 271.4275,
        "meta_mean_anomaly": 88.6366,
        "meta_ephemeris_type": 0,
        "meta_classification_type": "U",
        "meta_norad_cat_id": 66475,
        "meta_element_set_no": 999,
        "meta_rev_at_epoch": 539,
        "meta_bstar": 0.0017483441,
        "meta_mean_motion_dot": 0.00103764,
        "meta_mean_motion_ddot": 0,
        "tle_line1": "1 66475U 25262V   25345.64016766  .00103764  00000+0  17483-2 0  9995",
        "tle_line2": "2 66475  43.0001  77.4689 0001914 271.4275  88.6366 15.50624349  5395"
      },
      "geometry": {
        "type": "Point",
        "coordinates": [
          106.27049022833229,
          27.36842499062785
        ]
      }
    },
    {
      "type": "Feature",
      "properties": {
        "norad_id": 66476,
        "name": "STARLINK-35372",
        "group": "last-30-days",
        "lat": 28.560867786332466,
        "lon": 108.26082688600795,
        "alt_km": 409.86589091527367,
        "timestamp": "2025-12-12T11:38:30.168786+00:00",
        "meta_object_name": "STARLINK-35372",
        "meta_object_id": "2025-262W",
        "meta_epoch": "2025-12-11T15:21:21.149568",
        "meta_mean_motion": 15.50643698,
        "meta_eccentricity": 0.00013866,
        "meta_inclination": 43.0002,
        "meta_ra_of_asc_node": 77.4654,
        "meta_arg_of_pericenter": 284.004,
        "meta_mean_anomaly": 76.0666,
        "meta_ephemeris_type": 0,
        "meta_classification_type": "U",
        "meta_norad_cat_id": 66476,
        "meta_element_set_no": 999,
        "meta_rev_at_epoch": 528,
        "meta_bstar": 0.0028408412,
        "meta_mean_motion_dot": 0.00170386,
        "meta_mean_motion_ddot": 0,
        "tle_line1": "1 66476U 25262W   25345.63982812  .00170386  00000+0  28408-2 0  9992",
        "tle_line2": "2 66476  43.0002  77.4654 0001386 284.0040  76.0666 15.50643698  5282"
      },
      "geometry": {
        "type": "Point",
        "coordinates": [
          108.26082688600795,
          28.560867786332466
        ]
      }
    },
    {
      "type": "Feature",
      "properties": {
        "norad_id": 66477,
        "name": "STARLINK-35354",
        "group": "last-30-days",
        "lat": 30.91058562399202,
        "lon": 112.48716653080236,
        "alt_km": 409.49057429519416,
        "timestamp": "2025-12-12T11:38:30.168796+00:00",
        "meta_object_name": "STARLINK-35354",
        "meta_object_id": "2025-262X",
        "meta_epoch": "2025-12-11T07:36:34.693344",
        "meta_mean_motion": 15.50668561,
        "meta_eccentricity": 0.00016097,
        "meta_inclination": 43.0001,
        "meta_ra_of_asc_node": 79.3431,
        "meta_arg_of_pericenter": 267.1783,
        "meta_mean_anomaly": 92.8893,
        "meta_ephemeris_type": 0,
        "meta_classification_type": "U",
        "meta_norad_cat_id": 66477,
        "meta_element_set_no": 999,
        "meta_rev_at_epoch": 534,
        "meta_bstar": 0.0026959533,
        "meta_mean_motion_dot": 0.0016164,
        "meta_mean_motion_ddot": 0,
        "tle_line1": "1 66477U 25262X   25345.31706821  .00161640  00000+0  26960-2 0  9996",
        "tle_line2": "2 66477  43.0001  79.3431 0001609 267.1783  92.8893 15.50668561  5341"
      },
      "geometry": {
        "type": "Point",
        "coordinates": [
          112.48716653080236,
          30.91058562399202
        ]
      }
    },
    {
      "type": "Feature",
      "properties": {
        "norad_id": 66478,
        "name": "STARLINK-35283",
        "group": "last-30-days",
        "lat": 32.037815672037674,
        "lon": 114.68798623587833,
        "alt_km": 409.1915404555857,
        "timestamp": "2025-12-12T11:38:30.168806+00:00",
        "meta_object_name": "STARLINK-35283",
        "meta_object_id": "2025-262Y",
        "meta_epoch": "2025-12-11T07:36:04.808448",
        "meta_mean_motion": 15.50692325,
        "meta_eccentricity": 0.00017473,
        "meta_inclination": 43,
        "meta_ra_of_asc_node": 79.3398,
        "meta_arg_of_pericenter": 260.3131,
        "meta_mean_anomaly": 99.7532,
        "meta_ephemeris_type": 0,
        "meta_classification_type": "U",
        "meta_norad_cat_id": 66478,
        "meta_element_set_no": 999,
        "meta_rev_at_epoch": 534,
        "meta_bstar": 0.0032392192,
        "meta_mean_motion_dot": 0.00195292,
        "meta_mean_motion_ddot": 0,
        "tle_line1": "1 66478U 25262Y   25345.31672232  .00195292  00000+0  32392-2 0  9991",
        "tle_line2": "2 66478  43.0000  79.3398 0001747 260.3131  99.7532 15.50692325  5349"
      },
      "geometry": {
        "type": "Point",
        "coordinates": [
          114.68798623587833,
          32.037815672037674
        ]
      }
    },
    {
      "type": "Feature",
      "properties": {
        "norad_id": 66479,
        "name": "STARLINK-35581",
        "group": "last-30-days",
        "lat": 29.491512309827502,
        "lon": 109.88089665387723,
        "alt_km": 410.3547707055177,
        "timestamp": "2025-12-12T11:38:30.168818+00:00",
        "meta_object_name": "STARLINK-35581",
        "meta_object_id": "2025-262Z",
        "meta_epoch": "2025-12-11T15:20:51.362304",
        "meta_mean_motion": 15.506173,
        "meta_eccentricity": 0.00015898,
        "meta_inclination": 43.0004,
        "meta_ra_of_asc_node": 77.461,
        "meta_arg_of_pericenter": 271.2867,
        "meta_mean_anomaly": 88.7811,
        "meta_ephemeris_type": 0,
        "meta_classification_type": "U",
        "meta_norad_cat_id": 66479,
        "meta_element_set_no": 999,
        "meta_rev_at_epoch": 539,
        "meta_bstar": 0.0018832674,
        "meta_mean_motion_dot": 0.00111886,
        "meta_mean_motion_ddot": 0,
        "tle_line1": "1 66479U 25262Z   25345.63948336  .00111886  00000+0  18833-2 0  9999",
        "tle_line2": "2 66479  43.0004  77.4610 0001589 271.2867  88.7811 15.50617300  5394"
      },
      "geometry": {
        "type": "Point",
        "coordinates": [
          109.88089665387723,
          29.491512309827502
        ]
      }
    },
    {
      "type": "Feature",
      "properties": {
        "norad_id": 66480,
        "name": "STARLINK-35670",
        "group": "last-30-days",
        "lat": 32.54073401793303,
        "lon": 115.71285940546605,
        "alt_km": 409.49627519237765,
        "timestamp": "2025-12-12T11:38:30.168828+00:00",
        "meta_object_name": "STARLINK-35670",
        "meta_object_id": "2025-262AA",
        "meta_epoch": "2025-12-11T15:19:22.464480",
        "meta_mean_motion": 15.50632185,
        "meta_eccentricity": 0.00016686,
        "meta_inclination": 43.0003,
        "meta_ra_of_asc_node": 77.453,
        "meta_arg_of_pericenter": 292.4213,
        "meta_mean_anomaly": 67.6471,
        "meta_ephemeris_type": 0,
        "meta_classification_type": "U",
        "meta_norad_cat_id": 66480,
        "meta_element_set_no": 999,
        "meta_rev_at_epoch": 539,
        "meta_bstar": 0.0022531818,
        "meta_mean_motion_dot": 0.0013439,
        "meta_mean_motion_ddot": 0,
        "tle_line1": "1 66480U 25262AA  25345.63845445  .00134390  00000+0  22532-2 0  9994",
        "tle_line2": "2 66480  43.0003  77.4530 0001668 292.4213  67.6471 15.50632185  5390"
      },
      "geometry": {
        "type": "Point",
        "coordinates": [
          115.71285940546605,
          32.54073401793303
        ]
      }
    },
    {
      "type": "Feature",
      "properties": {
        "norad_id": 66481,
        "name": "STARLINK-35698",
        "group": "last-30-days",
        "lat": 33.44034505688374,
        "lon": 117.6209734490495,
        "alt_km": 409.54174668479664,
        "timestamp": "2025-12-12T11:38:30.168841+00:00",
        "meta_object_name": "STARLINK-35698",
        "meta_object_id": "2025-262AB",
        "meta_epoch": "2025-12-11T15:18:52.907040",
        "meta_mean_motion": 15.50619658,
        "meta_eccentricity": 0.00014945,
        "meta_inclination": 43.0004,
        "meta_ra_of_asc_node": 77.4498,
        "meta_arg_of_pericenter": 285.2045,
        "meta_mean_anomaly": 74.865,
        "meta_ephemeris_type": 0,
        "meta_classification_type": "U",
        "meta_norad_cat_id": 66481,
        "meta_element_set_no": 999,
        "meta_rev_at_epoch": 539,
        "meta_bstar": 0.0020280216,
        "meta_mean_motion_dot": 0.00120658,
        "meta_mean_motion_ddot": 0,
        "tle_line1": "1 66481U 25262AB  25345.63811235  .00120658  00000+0  20280-2 0  9995",
        "tle_line2": "2 66481  43.0004  77.4498 0001494 285.2045  74.8650 15.50619658  5394"
      },
      "geometry": {
        "type": "Point",
        "coordinates": [
          117.6209734490495,
          33.44034505688374
        ]
      }
    }
  ]
}